<?xml version='1.0' encoding='utf-8'?>
<q:quakeml xmlns="http://quakeml.org/xmlns/bed/1.2" xmlns:q="http://quakeml.org/xmlns/quakeml/1.2" xmlns:ns0="http://quakemigrate.github.io/xmlns/event">
  <eventParameters publicID="smi:local/3cd09e86-9583-4686-8ae0-65828caeaa53">
    <event publicID="smi:local/be6c4b02-1214-424a-a2f0-27869e5b60d7">
      <preferredOriginID>smi:local/ed63bce0-5446-4b66-8b11-db7846cbb249</preferredOriginID>
      <origin publicID="smi:local/ed63bce0-5446-4b66-8b11-db7846cbb249">
        <time>
          <value>2020-03-09T02:49:17.460000Z</value>
        </time>
        <latitude>
          <value>-76.601161</value>
          <uncertainty>0.0048653298880203324</uncertainty>
        </latitude>
        <longitude>
          <value>-103.462207</value>
          <uncertainty>0.002652998737460255</uncertainty>
        </longitude>
        <depth>
          <value>1930.0</value>
          <uncertainty>445.0</uncertainty>
        </depth>
        <methodID>smi:local/spline</methodID>
        <type>hypocenter</type>
        <evaluationMode>automatic</evaluationMode>
        <originUncertainty>
          <preferredDescription>confidence ellipsoid</preferredDescription>
          <confidenceEllipsoid>
            <semiMajorAxisLength>147.0</semiMajorAxisLength>
            <semiMinorAxisLength>168.0</semiMinorAxisLength>
            <semiIntermediateAxisLength>266.0</semiIntermediateAxisLength>
            <majorAxisPlunge>0.0</majorAxisPlunge>
            <majorAxisAzimuth>0.0</majorAxisAzimuth>
            <majorAxisRotation>0.0</majorAxisRotation>
          </confidenceEllipsoid>
        </originUncertainty>
      </origin>
      <pick publicID="smi:local/186c10e1-b8a8-429f-9c56-fe7ed60bd3f2">
        <time>
          <value>2020-03-09T02:49:18.086651Z</value>
        </time>
        <waveformID networkCode="" stationCode="DRSC"></waveformID>
        <methodID>smi:local/modelled</methodID>
        <phaseHint>P</phaseHint>
        <comment id="smi:local/9d47f18a-301c-4eaa-95bd-55f6b028d49d">
          <text>2.806033259503434</text>
        </comment>
        <comment id="smi:local/a99fcafa-98e0-4b21-9113-433c64fc29a1">
          <text>12.16542737412612</text>
        </comment>
        <comment id="smi:local/0c8b4214-8794-4646-89a9-72c8271a3fa5">
          <text>4.795637133060338</text>
        </comment>
      </pick>
      <pick publicID="smi:local/1afe463b-b2d0-41ab-84f2-e97e1898229f">
        <time>
          <value>2020-03-09T02:49:18.055451Z</value>
          <uncertainty>0.0224</uncertainty>
        </time>
        <waveformID networkCode="" stationCode="DRSC"></waveformID>
        <methodID>smi:local/autopick</methodID>
        <phaseHint>P</phaseHint>
        <comment id="smi:local/7206b882-79ea-411a-b652-197fad966ed6">
          <text>2.8302204142378695</text>
        </comment>
        <comment id="smi:local/b7bbd0fb-3fc4-4b6c-bfad-6d456f74e4a2">
          <text>12.362752739053734</text>
        </comment>
        <comment id="smi:local/0c7df343-945a-4cd0-81a8-226918b15e20">
          <text>4.55327772026019</text>
        </comment>
        <ns0:snr>5220.0</ns0:snr>
      </pick>
      <pick publicID="smi:local/935fcad8-4d4f-47dd-a7cf-c8593380827d">
        <time>
          <value>2020-03-09T02:49:18.681811Z</value>
        </time>
        <waveformID networkCode="" stationCode="DRSC"></waveformID>
        <methodID>smi:local/modelled</methodID>
        <phaseHint>S</phaseHint>
        <comment id="smi:local/eef0faea-475a-4672-8aad-0f46b30e59df">
          <text>20.639182492318618</text>
        </comment>
        <comment id="smi:local/acc76094-8d97-480f-b5db-6842a8ef915c">
          <text>10.508419026006282</text>
        </comment>
        <comment id="smi:local/4d0e3c5e-bb44-4461-8f5c-55a25cf7ca29">
          <text>9.69526899084933</text>
        </comment>
      </pick>
      <pick publicID="smi:local/3bdd0b5f-736e-4113-be62-f0d7cf306dd5">
        <time>
          <value>2020-03-09T02:49:18.616606Z</value>
          <uncertainty>0.069</uncertainty>
        </time>
        <waveformID networkCode="" stationCode="DRSC"></waveformID>
        <methodID>smi:local/autopick</methodID>
        <phaseHint>S</phaseHint>
        <comment id="smi:local/62a25c2a-2548-4434-87b7-168d56f2e0f3">
          <text>20.487279560746792</text>
        </comment>
        <comment id="smi:local/ad3c8df2-4c7c-429e-a017-9f274dd69401">
          <text>10.948739753313761</text>
        </comment>
        <comment id="smi:local/938a3e73-1ad4-4985-a4f0-774cab505178">
          <text>9.387519002922337</text>
        </comment>
        <ns0:snr>572.0</ns0:snr>
      </pick>
    </event>
    <event publicID="smi:local/8ce5a0c7-d345-44c9-b908-05d637ce0e9d">
      <preferredOriginID>smi:local/b3aff814-1b93-4e79-9eda-402737256c57</preferredOriginID>
      <origin publicID="smi:local/b3aff814-1b93-4e79-9eda-402737256c57">
        <time>
          <value>2020-03-09T04:06:39.570000Z</value>
        </time>
        <latitude>
          <value>-76.599889</value>
          <uncertainty>0.004712445215014148</uncertainty>
        </latitude>
        <longitude>
          <value>-103.463459</value>
          <uncertainty>0.0028058834104664394</uncertainty>
        </longitude>
        <depth>
          <value>1780.0</value>
          <uncertainty>443.0</uncertainty>
        </depth>
        <methodID>smi:local/spline</methodID>
        <type>hypocenter</type>
        <evaluationMode>automatic</evaluationMode>
        <originUncertainty>
          <preferredDescription>confidence ellipsoid</preferredDescription>
          <confidenceEllipsoid>
            <semiMajorAxisLength>128.0</semiMajorAxisLength>
            <semiMinorAxisLength>194.0</semiMinorAxisLength>
            <semiIntermediateAxisLength>201.0</semiIntermediateAxisLength>
            <majorAxisPlunge>0.0</majorAxisPlunge>
            <majorAxisAzimuth>0.0</majorAxisAzimuth>
            <majorAxisRotation>0.0</majorAxisRotation>
          </confidenceEllipsoid>
        </originUncertainty>
      </origin>
      <pick publicID="smi:local/c35433ab-5bbc-491a-813a-226400f83706">
        <time>
          <value>2020-03-09T04:06:40.731790Z</value>
        </time>
        <waveformID networkCode="" stationCode="DRSC"></waveformID>
        <methodID>smi:local/modelled</methodID>
        <phaseHint>S</phaseHint>
        <comment id="smi:local/e7c2dcde-03d3-43a9-9016-fb0115dcf6af">
          <text>20.29173776552089</text>
        </comment>
        <comment id="smi:local/15a43e4f-e2bc-436a-8efc-7d3a8c4cb6e5">
          <text>12.067768612555103</text>
        </comment>
        <comment id="smi:local/97fe8b1f-fe64-4004-b846-5efd17a2a2f4">
          <text>9.73165263891267</text>
        </comment>
      </pick>
      <pick publicID="smi:local/c0f49a1d-bb4e-4b0e-9684-34e0147c7f70">
        <time>
          <value>2020-03-09T04:06:40.713096Z</value>
          <uncertainty>0.0644</uncertainty>
        </time>
        <waveformID networkCode="" stationCode="DRSC"></waveformID>
        <methodID>smi:local/autopick</methodID>
        <phaseHint>S</phaseHint>
        <comment id="smi:local/6cf8afed-4f33-4cb4-8fbf-650e41e6d8bc">
          <text>19.627333624350026</text>
        </comment>
        <comment id="smi:local/6264a9d6-e678-49a8-ae96-0d1d928b7039">
          <text>12.104914303518797</text>
        </comment>
        <comment id="smi:local/ae4946cb-52ff-42a2-b37a-cac7d2cfacfc">
          <text>9.612127249981324</text>
        </comment>
        <ns0:snr>959.0</ns0:snr>
      </pick>
    </event>
    <event publicID="smi:local/b752a300-96c8-4af8-835e-64b85bc96d64">
      <preferredOriginID>smi:local/fb449d1c-9a10-4b41-94dd-0a910faa2288</preferredOriginID>
      <origin publicID="smi:local/fb449d1c-9a10-4b41-94dd-0a910faa2288">
        <time>
          <value>2020-03-09T11:17:24.875000Z</value>
        </time>
        <latitude>
          <value>-76.599787</value>
          <uncertainty>0.003948021849983227</uncertainty>
        </latitude>
        <longitude>
          <value>-103.457244</value>
          <uncertainty>0.002626019089282693</uncertainty>
        </longitude>
        <depth>
          <value>1730.0</value>
          <uncertainty>395.0</uncertainty>
        </depth>
        <methodID>smi:local/spline</methodID>
        <type>hypocenter</type>
        <evaluationMode>automatic</evaluationMode>
        <originUncertainty>
          <preferredDescription>confidence ellipsoid</preferredDescription>
          <confidenceEllipsoid>
            <semiMajorAxisLength>100.0</semiMajorAxisLength>
            <semiMinorAxisLength>151.0</semiMinorAxisLength>
            <semiIntermediateAxisLength>173.0</semiIntermediateAxisLength>
            <majorAxisPlunge>0.0</majorAxisPlunge>
            <majorAxisAzimuth>0.0</majorAxisAzimuth>
            <majorAxisRotation>0.0</majorAxisRotation>
          </confidenceEllipsoid>
        </originUncertainty>
      </origin>
      <pick publicID="smi:local/c28ca1a1-6b53-4a39-9563-18237347c886">
        <time>
          <value>2020-03-09T11:17:25.441385Z</value>
        </time>
        <waveformID networkCode="" stationCode="DRSC"></waveformID>
        <methodID>smi:local/modelled</methodID>
        <phaseHint>P</phaseHint>
        <comment id="smi:local/a9280d09-02f7-4fe0-bef9-953b7c551cfd">
          <text>3.533033431362524</text>
        </comment>
        <comment id="smi:local/221c8578-2d40-4592-b255-8f5c58ed9bf2">
          <text>15.92194380236826</text>
        </comment>
        <comment id="smi:local/21360b09-3f7e-4951-8eb1-0d76e501d3c8">
          <text>3.8855552601129046</text>
        </comment>
      </pick>
      <pick publicID="smi:local/6f6098f5-16a1-458f-95a8-a3e61094dd89">
        <time>
          <value>2020-03-09T11:17:25.393273Z</value>
          <uncertainty>0.0211</uncertainty>
        </time>
        <waveformID networkCode="" stationCode="DRSC"></waveformID>
        <methodID>smi:local/autopick</methodID>
        <phaseHint>P</phaseHint>
        <comment id="smi:local/9e20a9e3-cf51-4b6d-b488-f7a6ea2f169a">
          <text>3.367742320438416</text>
        </comment>
        <comment id="smi:local/37480604-03d6-49ab-92bf-5cf974dc90ea">
          <text>14.950045776027203</text>
        </comment>
        <comment id="smi:local/1dc0381d-fd57-4dbc-9b11-d6023f07fa17">
          <text>3.5142153892144083</text>
        </comment>
        <ns0:snr>8730.0</ns0:snr>
      </pick>
      <pick publicID="smi:local/cf3b7246-54d7-44cb-a116-792a862d1b53">
        <time>
          <value>2020-03-09T11:17:25.979307Z</value>
        </time>
        <waveformID networkCode="" stationCode="DRSC"></waveformID>
        <methodID>smi:local/modelled</methodID>
        <phaseHint>S</phaseHint>
        <comment id="smi:local/da475d73-a37e-4914-85c5-9ef2995b6bdd">
          <text>29.722463527775982</text>
        </comment>
        <comment id="smi:local/c7b91bf6-3140-47f8-81d0-ed42f483ba52">
          <text>13.977660195825862</text>
        </comment>
        <comment id="smi:local/150cfe90-2e3a-4807-9ff3-beeeb673ef53">
          <text>11.748010441792003</text>
        </comment>
      </pick>
      <pick publicID="smi:local/9088f8f7-b1bc-4b00-a1e5-3d382905bbbf">
        <time>
          <value>2020-03-09T11:17:25.955545Z</value>
          <uncertainty>0.065</uncertainty>
        </time>
        <waveformID networkCode="" stationCode="DRSC"></waveformID>
        <methodID>smi:local/autopick</methodID>
        <phaseHint>S</phaseHint>
        <comment id="smi:local/1b276eee-2fcf-4a7c-bd38-76bdb06fcc14">
          <text>28.42377803591078</text>
        </comment>
        <comment id="smi:local/ee283df2-c805-494d-9a88-049bae5c5f00">
          <text>13.650083902496892</text>
        </comment>
        <comment id="smi:local/c3b637a0-81fd-4a91-b672-d8472358ef32">
          <text>11.577934799254036</text>
        </comment>
        <ns0:snr>979.0</ns0:snr>
      </pick>
    </event>
    <event publicID="smi:local/a1d883ce-6a51-4320-b453-73ca0ed11633">
      <preferredOriginID>smi:local/2b6cca9d-2080-4a31-8c9d-bc9744fb8ad0</preferredOriginID>
      <origin publicID="smi:local/2b6cca9d-2080-4a31-8c9d-bc9744fb8ad0">
        <time>
          <value>2020-03-09T15:06:07.165000Z</value>
        </time>
        <latitude>
          <value>-76.593391</value>
          <uncertainty>0.004352716572646655</uncertainty>
        </latitude>
        <longitude>
          <value>-103.466588</value>
          <uncertainty>0.0030487002440644966</uncertainty>
        </longitude>
        <depth>
          <value>1540.0</value>
          <uncertainty>735.0</uncertainty>
        </depth>
        <methodID>smi:local/spline</methodID>
        <type>hypocenter</type>
        <evaluationMode>automatic</evaluationMode>
        <originUncertainty>
          <preferredDescription>confidence ellipsoid</preferredDescription>
          <confidenceEllipsoid>
            <semiMajorAxisLength>232.0</semiMajorAxisLength>
            <semiMinorAxisLength>572.0</semiMinorAxisLength>
            <semiIntermediateAxisLength>304.0</semiIntermediateAxisLength>
            <majorAxisPlunge>0.0</majorAxisPlunge>
            <majorAxisAzimuth>0.0</majorAxisAzimuth>
            <majorAxisRotation>0.0</majorAxisRotation>
          </confidenceEllipsoid>
        </originUncertainty>
      </origin>
      <pick publicID="smi:local/825b3883-ab04-457f-811e-8d92373e10a7">
        <time>
          <value>2020-03-09T15:06:07.813164Z</value>
        </time>
        <waveformID networkCode="" stationCode="DRSC"></waveformID>
        <methodID>smi:local/modelled</methodID>
        <phaseHint>P</phaseHint>
        <comment id="smi:local/ab457321-8f11-4df0-b0a9-d91d7ce107d3">
          <text>4.278764001493248</text>
        </comment>
        <comment id="smi:local/32c4848f-39fd-484c-837f-6522e9aa6028">
          <text>19.5374732013414</text>
        </comment>
        <comment id="smi:local/1731ac0f-8bcc-4bdc-8b69-fd08bab60155">
          <text>5.8508211162597235</text>
        </comment>
      </pick>
      <pick publicID="smi:local/7eed37bd-4647-44c8-9fce-a6adfe463041">
        <time>
          <value>2020-03-09T15:06:07.726943Z</value>
          <uncertainty>0.0197</uncertainty>
        </time>
        <waveformID networkCode="" stationCode="DRSC"></waveformID>
        <methodID>smi:local/autopick</methodID>
        <phaseHint>P</phaseHint>
        <comment id="smi:local/2627746c-6301-48ab-89bd-0664deff4dfa">
          <text>4.141237316544325</text>
        </comment>
        <comment id="smi:local/b808eaef-1ec8-4b84-814d-6c3f5b3cc48e">
          <text>19.825934098610695</text>
        </comment>
        <comment id="smi:local/3cd7550b-2dc3-4212-8646-61dd11d7c9a5">
          <text>5.6359613448738495</text>
        </comment>
        <ns0:snr>13600.0</ns0:snr>
      </pick>
      <pick publicID="smi:local/efde1874-1e16-4255-84c9-63a4cff01fcb">
        <time>
          <value>2020-03-09T15:06:08.428756Z</value>
        </time>
        <waveformID networkCode="" stationCode="DRSC"></waveformID>
        <methodID>smi:local/modelled</methodID>
        <phaseHint>S</phaseHint>
        <comment id="smi:local/09439478-869d-4730-bf8b-358e8f6efb18">
          <text>41.31047250433224</text>
        </comment>
        <comment id="smi:local/7299befb-5efa-47be-b07b-3f6ea02dd49b">
          <text>20.92304398466181</text>
        </comment>
        <comment id="smi:local/c1000dc9-f19c-49c2-bc88-bdc5a4fea951">
          <text>16.327290647305553</text>
        </comment>
      </pick>
      <pick publicID="smi:local/e4059a7f-7540-4562-a6f9-6cad4d49af9f">
        <time>
          <value>2020-03-09T15:06:08.290347Z</value>
          <uncertainty>0.064</uncertainty>
        </time>
        <waveformID networkCode="" stationCode="DRSC"></waveformID>
        <methodID>smi:local/autopick</methodID>
        <phaseHint>S</phaseHint>
        <comment id="smi:local/dec07e26-e154-4a92-a1d3-b7659c21799c">
          <text>39.6460059074946</text>
        </comment>
        <comment id="smi:local/417598a6-6c0f-45d0-8aa0-d1314123509c">
          <text>25.594775396122593</text>
        </comment>
        <comment id="smi:local/ef288547-893c-4d85-81d3-90ab087480a2">
          <text>14.964801942788526</text>
        </comment>
        <ns0:snr>1130.0</ns0:snr>
      </pick>
    </event>
    <event publicID="smi:local/01a69bb0-1c54-4ea9-b149-a6747f92aa87">
      <preferredOriginID>smi:local/529c34d8-e5fa-481f-87de-d80d7a9a770e</preferredOriginID>
      <origin publicID="smi:local/529c34d8-e5fa-481f-87de-d80d7a9a770e">
        <time>
          <value>2020-06-23T04:22:59.945000Z</value>
        </time>
        <latitude>
          <value>-76.55773</value>
          <uncertainty>0.0034264153185503635</uncertainty>
        </latitude>
        <longitude>
          <value>-103.44905</value>
          <uncertainty>0.00787805726784808</uncertainty>
        </longitude>
        <depth>
          <value>2290.0</value>
          <uncertainty>175.0</uncertainty>
        </depth>
        <methodID>smi:local/spline</methodID>
        <type>hypocenter</type>
        <evaluationMode>automatic</evaluationMode>
        <originUncertainty>
          <preferredDescription>confidence ellipsoid</preferredDescription>
          <confidenceEllipsoid>
            <semiMajorAxisLength>103.0</semiMajorAxisLength>
            <semiMinorAxisLength>164.0</semiMinorAxisLength>
            <semiIntermediateAxisLength>174.0</semiIntermediateAxisLength>
            <majorAxisPlunge>0.0</majorAxisPlunge>
            <majorAxisAzimuth>0.0</majorAxisAzimuth>
            <majorAxisRotation>0.0</majorAxisRotation>
          </confidenceEllipsoid>
        </originUncertainty>
      </origin>
    </event>
    <event publicID="smi:local/397bbcfb-17d6-4845-a4d8-9fc8ebd9d0fc">
      <preferredOriginID>smi:local/a6c11010-ff2d-4132-b885-32e5c3972aa7</preferredOriginID>
      <origin publicID="smi:local/a6c11010-ff2d-4132-b885-32e5c3972aa7">
        <time>
          <value>2020-08-01T04:33:16.545000Z</value>
        </time>
        <latitude>
          <value>-77.2941</value>
          <uncertainty>0.00450560124565284</uncertainty>
        </latitude>
        <longitude>
          <value>-100.482231</value>
          <uncertainty>0.003912048985746478</uncertainty>
        </longitude>
        <depth>
          <value>3140.0</value>
          <uncertainty>362.0</uncertainty>
        </depth>
        <methodID>smi:local/spline</methodID>
        <type>hypocenter</type>
        <evaluationMode>automatic</evaluationMode>
        <originUncertainty>
          <preferredDescription>confidence ellipsoid</preferredDescription>
          <confidenceEllipsoid>
            <semiMajorAxisLength>95.0</semiMajorAxisLength>
            <semiMinorAxisLength>137.0</semiMinorAxisLength>
            <semiIntermediateAxisLength>110.0</semiIntermediateAxisLength>
            <majorAxisPlunge>0.0</majorAxisPlunge>
            <majorAxisAzimuth>0.0</majorAxisAzimuth>
            <majorAxisRotation>0.0</majorAxisRotation>
          </confidenceEllipsoid>
        </originUncertainty>
      </origin>
      <pick publicID="smi:local/a70ae738-ee1b-43ac-b9ca-1d09428e4f4f">
        <time>
          <value>2020-08-01T04:33:18.172063Z</value>
        </time>
        <waveformID networkCode="" stationCode="TJTJ"></waveformID>
        <methodID>smi:local/modelled</methodID>
        <phaseHint>S</phaseHint>
        <comment id="smi:local/71b3a80a-50de-4e70-80b2-ad5c7840610a">
          <text>10.095669095987363</text>
        </comment>
        <comment id="smi:local/d69c6e6a-857c-45ba-8f65-0de1e824fbd0">
          <text>20.145334858304995</text>
        </comment>
        <comment id="smi:local/67455aaa-4246-4875-985a-6128bdb78183">
          <text>16.333277737729677</text>
        </comment>
      </pick>
      <pick publicID="smi:local/7fd34e71-5888-4db2-8bda-27bb9521917e">
        <time>
