network_code,receiver_code,receiver_type,receiver_latitude,receiver_longitude,receiver_elevation_m,p_arrival_sample,p_status,p_weight,p_travel_sec,s_arrival_sample,s_status,s_weight,source_id,source_origin_time,source_origin_uncertainty_sec,source_latitude,source_longitude,source_error_sec,source_gap_deg,source_horizontal_uncertainty_km,source_depth_km,source_depth_uncertainty_km,source_magnitude,source_magnitude_type,source_magnitude_author,source_mechanism_strike_dip_rake,source_distance_deg,source_distance_km,back_azimuth_deg,snr_db,coda_end_sample,trace_start_time,trace_category,trace_name,s_travel_sec,p_arrival_time,s_arrival_time
,DRSC,,,,,,autopick,1,0.595451,,autopick,1,be6c4b02-1214-424a-a2f0-27869e5b60d7,2020-03-09T02:49:17.460000Z,,-76.601161,-103.462207,,,,1.93,,,,,,,,,,,,,be6c4b02-1214-424a-a2f0-27869e5b60d7_DRSC,1.156606,2020-03-09T02:49:18.055451Z,2020-03-09T02:49:18.616606Z
,DRSC,,,,,,,0,,,autopick,1,8ce5a0c7-d345-44c9-b908-05d637ce0e9d,2020-03-09T04:06:39.570000Z,,-76.599889,-103.463459,,,,1.78,,,,,,,,,,,,,8ce5a0c7-d345-44c9-b908-05d637ce0e9d_DRSC,1.143096,,2020-03-09T04:06:40.713096Z
,DRSC,,,,,,autopick,1,0.518273,,autopick,1,b752a300-96c8-4af8-835e-64b85bc96d64,2020-03-09T11:17:24.875000Z,,-76.599787,-103.457244,,,,1.73,,,,,,,,,,,,,b752a300-96c8-4af8-835e-64b85bc96d64_DRSC,1.080545,2020-03-09T11:17:25.393273Z,2020-03-09T11:17:25.955545Z
,DRSC,,,,,,autopick,1,0.561943,,autopick,1,a1d883ce-6a51-4320-b453-73ca0ed11633,2020-03-09T15:06:07.165000Z,,-76.593391,-103.466588,,,,1.54,,,,,,,,,,,,,a1d883ce-6a51-4320-b453-73ca0ed11633_DRSC,1.125347,2020-03-09T15:06:07.726943Z,2020-03-09T15:06:08.290347Z
,TJTJ,,,,,,,0,,,autopick,1,397bbcfb-17d6-4845-a4d8-9fc8ebd9d0fc,2020-08-01T04:33:16.545000Z,,-77.2941,-100.482231,,,,3.14,,,,,,,,,,,,,397bbcfb-17d6-4845-a4d8-9fc8ebd9d0fc_TJTJ,1.587183,,2020-08-01T04:33:18.132183Z
,TJTJ,,,,,,,0,,,autopick,1,300a4d66-89f9-49ee-a005-6a471ede1158,2020-08-01T08:58:11.790000Z,,-77.293877,-100.48121,,,,3.13,,,,,,,,,,,,,300a4d66-89f9-49ee-a005-6a471ede1158_TJTJ,1.580853,,2020-08-01T08:58:13.370853Z
,TJTJ,,,,,,,0,,,autopick,1,7b79c32b-bd7e-4801-b684-fcf300bb59ca,2020-08-12T16:24:41.695000Z,,-77.2941,-100.482231,,,,3.07,,,,,,,,,,,,,7b79c32b-bd7e-4801-b684-fcf300bb59ca_TJTJ,1.579056,,2020-08-12T16:24:43.274056Z
,TJTJ,,,,,,,0,,,autopick,1,683dfc2d-012a-4a5c-805d-41a6e2cb60fb,2020-08-12T18:59:48.320000Z,,-77.294101,-100.481213,,,,3.13,,,,,,,,,,,,,683dfc2d-012a-4a5c-805d-41a6e2cb60fb_TJTJ,1.582435,,2020-08-12T18:59:49.902435Z
,TJTJ,,,,,,,0,,,autopick,1,d1312546-68a0-4490-80b6-d48b7c8e23ad,2020-08-12T21:00:34.010000Z,,-77.293878,-100.480193,,,,3.13,,,,,,,,,,,,,d1312546-68a0-4490-80b6-d48b7c8e23ad_TJTJ,1.581654,,2020-08-12T21:00:35.591654Z
,OTIS,,,,,,autopick,1,1.481861,,,0,d1312546-68a0-4490-80b6-d48b7c8e23ad,2020-08-12T21:00:34.010000Z,,-77.293878,-100.480193,,,,3.13,,,,,,,,,,,,,d1312546-68a0-4490-80b6-d48b7c8e23ad_OTIS,,2020-08-12T21:00:35.491861Z,
,TJTJ,,,,,,,0,,,autopick,1,6992c35f-ff72-40df-a8ff-1789ba666c05,2020-08-12T22:15:17.685000Z,,-77.293876,-100.482228,,,,3.07,,,,,,,,,,,,,6992c35f-ff72-40df-a8ff-1789ba666c05_TJTJ,1.583618,,2020-08-12T22:15:19.268618Z
,DEEJ,,,,,,,0,,,autopick,1,2b2ab3b5-d7f6-4792-bc37-81a3a54c98b7,2020-08-14T00:14:24.785000Z,,-77.280727,-100.311226,,,,2.86,,,,,,,,,,,,,2b2ab3b5-d7f6-4792-bc37-81a3a54c98b7_DEEJ,1.501353,,2020-08-14T00:14:26.286353Z
,TJTJ,,,,,,autopick,1,1.419782,,,0,2b2ab3b5-d7f6-4792-bc37-81a3a54c98b7,2020-08-14T00:14:24.785000Z,,-77.280727,-100.311226,,,,2.86,,,,,,,,,,,,,2b2ab3b5-d7f6-4792-bc37-81a3a54c98b7_TJTJ,,2020-08-14T00:14:26.204782Z,
,TJTJ,,,,,,,0,,,autopick,1,ccb33e72-9e3a-4a73-ba6e-def9f196c5a4,2020-08-14T00:45:20.865000Z,,-77.294324,-100.482234,,,,3.14,,,,,,,,,,,,,ccb33e72-9e3a-4a73-ba6e-def9f196c5a4_TJTJ,1.577006,,2020-08-14T00:45:22.442006Z
,OTIS,,,,,,autopick,1,1.475948,,,0,ccb33e72-9e3a-4a73-ba6e-def9f196c5a4,2020-08-14T00:45:20.865000Z,,-77.294324,-100.482234,,,,3.14,,,,,,,,,,,,,ccb33e72-9e3a-4a73-ba6e-def9f196c5a4_OTIS,,2020-08-14T00:45:22.340948Z,
,TJTJ,,,,,,,0,,,autopick,1,d6c041e4-925f-455a-a38a-b352195ed17b,2020-08-14T02:37:23.330000Z,,-77.294101,-100.481213,,,,3.13,,,,,,,,,,,,,d6c041e4-925f-455a-a38a-b352195ed17b_TJTJ,1.576963,,2020-08-14T02:37:24.906963Z
,OTIS,,,,,,autopick,1,1.479572,,,0,d6c041e4-925f-455a-a38a-b352195ed17b,2020-08-14T02:37:23.330000Z,,-77.294101,-100.481213,,,,3.13,,,,,,,,,,,,,d6c041e4-925f-455a-a38a-b352195ed17b_OTIS,,2020-08-14T02:37:24.809572Z,
,TJTJ,,,,,,,0,,,autopick,1,56d246c5-202e-4747-b95d-c928924ed028,2020-08-14T04:44:00.795000Z,,-77.294101,-100.481213,,,,3.13,,,,,,,,,,,,,56d246c5-202e-4747-b95d-c928924ed028_TJTJ,1.575711,,2020-08-14T04:44:02.370711Z
,OTIS,,,,,,autopick,1,1.47473,,,0,56d246c5-202e-4747-b95d-c928924ed028,2020-08-14T04:44:00.795000Z,,-77.294101,-100.481213,,,,3.13,,,,,,,,,,,,,56d246c5-202e-4747-b95d-c928924ed028_OTIS,,2020-08-14T04:44:02.269730Z,
,TJTJ,,,,,,,0,,,autopick,1,980b3aac-0b27-428d-95ee-2ea98ff439a8,2020-08-16T22:29:50.015000Z,,-77.294101,-100.481213,,,,3.14,,,,,,,,,,,,,980b3aac-0b27-428d-95ee-2ea98ff439a8_TJTJ,1.584385,,2020-08-16T22:29:51.599385Z
,OTIS,,,,,,autopick,1,1.483117,,,0,980b3aac-0b27-428d-95ee-2ea98ff439a8,2020-08-16T22:29:50.015000Z,,-77.294101,-100.481213,,,,3.14,,,,,,,,,,,,,980b3aac-0b27-428d-95ee-2ea98ff439a8_OTIS,,2020-08-16T22:29:51.498117Z,
,TJTJ,,,,,,,0,,,autopick,1,201b69dc-0bce-4795-b80c-8b1cc4a2542e,2020-07-12T19:36:15.470000Z,,-77.297886,-100.510792,,,,3.26,,,,,,,,,,,,,201b69dc-0bce-4795-b80c-8b1cc4a2542e_TJTJ,1.700243,,2020-07-12T19:36:17.170243Z
,TJTJ,,,,,,,0,,,autopick,1,18524ffc-7574-46fd-8460-c87b4f3a1ae4,2020-07-12T20:16:48.045000Z,,-77.297886,-100.510792,,,,3.24,,,,,,,,,,,,,18524ffc-7574-46fd-8460-c87b4f3a1ae4_TJTJ,1.694951,,2020-07-12T20:16:49.739951Z
,OTIS,,,,,,autopick,1,1.402169,,,0,18524ffc-7574-46fd-8460-c87b4f3a1ae4,2020-07-12T20:16:48.045000Z,,-77.297886,-100.510792,,,,3.24,,,,,,,,,,,,,18524ffc-7574-46fd-8460-c87b4f3a1ae4_OTIS,,2020-07-12T20:16:49.447169Z,
,TJTJ,,,,,,autopick,1,0.870816,,autopick,1,f2338b3d-428f-4e45-9dd2-4281cfce1430,2020-07-13T01:51:43.300000Z,,-77.297663,-100.50977,,,,3.25,,,,,,,,,,,,,f2338b3d-428f-4e45-9dd2-4281cfce1430_TJTJ,1.696857,2020-07-13T01:51:44.170816Z,2020-07-13T01:51:44.996857Z
,OTIS,,,,,,autopick,1,1.403539,,,0,f2338b3d-428f-4e45-9dd2-4281cfce1430,2020-07-13T01:51:43.300000Z,,-77.297663,-100.50977,,,,3.25,,,,,,,,,,,,,f2338b3d-428f-4e45-9dd2-4281cfce1430_OTIS,,2020-07-13T01:51:44.703539Z,
,TJTJ,,,,,,,0,,,autopick,1,94f15a83-1f90-4991-bdb5-f7b33370c380,2020-07-13T03:17:49.705000Z,,-77.29811,-100.510796,,,,3.25,,,,,,,,,,,,,94f15a83-1f90-4991-bdb5-f7b33370c380_TJTJ,1.713495,,2020-07-13T03:17:51.418495Z
,OTIS,,,,,,autopick,1,1.419539,,,0,94f15a83-1f90-4991-bdb5-f7b33370c380,2020-07-13T03:17:49.705000Z,,-77.29811,-100.510796,,,,3.25,,,,,,,,,,,,,94f15a83-1f90-4991-bdb5-f7b33370c380_OTIS,,2020-07-13T03:17:51.124539Z,
,TJTJ,,,,,,,0,,,autopick,1,592c685b-82ad-4021-ab1d-e91172fa1fda,2020-07-13T04:01:59.765000Z,,-77.297886,-100.510792,,,,3.26,,,,,,,,,,,,,592c685b-82ad-4021-ab1d-e91172fa1fda_TJTJ,1.714356,,2020-07-13T04:02:01.479356Z
,OTIS,,,,,,autopick,1,1.417957,,,0,592c685b-82ad-4021-ab1d-e91172fa1fda,2020-07-13T04:01:59.765000Z,,-77.297886,-100.510792,,,,3.26,,,,,,,,,,,,,592c685b-82ad-4021-ab1d-e91172fa1fda_OTIS,,2020-07-13T04:02:01.182957Z,
,TJTJ,,,,,,,0,,,autopick,1,2fac2b7b-0df5-4843-90a7-af00ad0cdf2f,2020-07-13T05:13:23.570000Z,,-77.297662,-100.510789,,,,3.25,,,,,,,,,,,,,2fac2b7b-0df5-4843-90a7-af00ad0cdf2f_TJTJ,1.711042,,2020-07-13T05:13:25.281042Z
,OTIS,,,,,,autopick,1,1.41713,,,0,2fac2b7b-0df5-4843-90a7-af00ad0cdf2f,2020-07-13T05:13:23.570000Z,,-77.297662,-100.510789,,,,3.25,,,,,,,,,,,,,2fac2b7b-0df5-4843-90a7-af00ad0cdf2f_OTIS,,2020-07-13T05:13:24.987130Z,
,TJTJ,,,,,,,0,,,autopick,1,6a7f98f6-4465-4f01-87af-dc821d7c7374,2020-07-13T06:21:13.780000Z,,-77.298111,-100.509778,,,,3.26,,,,,,,,,,,,,6a7f98f6-4465-4f01-87af-dc821d7c7374_TJTJ,1.712625,,2020-07-13T06:21:15.492625Z
,OTIS,,,,,,autopick,1,1.420199,,,0,6a7f98f6-4465-4f01-87af-dc821d7c7374,2020-07-13T06:21:13.780000Z,,-77.298111,-100.509778,,,,3.26,,,,,,,,,,,,,6a7f98f6-4465-4f01-87af-dc821d7c7374_OTIS,,2020-07-13T06:21:15.200199Z,
,TJTJ,,,,,,,0,,,autopick,1,82227095-03f0-455a-82cf-3854b9783077,2020-07-13T07:09:09.735000Z,,-77.297663,-100.50977,,,,3.26,,,,,,,,,,,,,82227095-03f0-455a-82cf-3854b9783077_TJTJ,1.713378,,2020-07-13T07:09:11.448378Z
,OTIS,,,,,,autopick,1,1.420559,,,0,82227095-03f0-455a-82cf-3854b9783077,2020-07-13T07:09:09.735000Z,,-77.297663,-100.50977,,,,3.26,,,,,,,,,,,,,82227095-03f0-455a-82cf-3854b9783077_OTIS,,2020-07-13T07:09:11.155559Z,
,TJTJ,,,,,,,0,,,autopick,1,6e85ee5d-5a34-462f-b974-561943c2358a,2020-07-13T08:24:44.835000Z,,-77.297663,-100.50977,,,,3.32,,,,,,,,,,,,,6e85ee5d-5a34-462f-b974-561943c2358a_TJTJ,1.735652,,2020-07-13T08:24:46.570652Z
,OTIS,,,,,,autopick,1,1.433355,,,0,6e85ee5d-5a34-462f-b974-561943c2358a,2020-07-13T08:24:44.835000Z,,-77.297663,-100.50977,,,,3.32,,,,,,,,,,,,,6e85ee5d-5a34-462f-b974-561943c2358a_OTIS,,2020-07-13T08:24:46.268355Z,
,TJTJ,,,,,,autopick,1,0.889018,,autopick,1,8dcf07ed-aa53-439c-98df-e4bc465b0c07,2020-07-13T11:55:56.735000Z,,-77.297662,-100.510789,,,,3.26,,,,,,,,,,,,,8dcf07ed-aa53-439c-98df-e4bc465b0c07_TJTJ,1.712955,2020-07-13T11:55:57.624018Z,2020-07-13T11:55:58.447955Z
,OTIS,,,,,,autopick,1,1.419727,,,0,8dcf07ed-aa53-439c-98df-e4bc465b0c07,2020-07-13T11:55:56.735000Z,,-77.297662,-100.510789,,,,3.26,,,,,,,,,,,,,8dcf07ed-aa53-439c-98df-e4bc465b0c07_OTIS,,2020-07-13T11:55:58.154727Z,
,TJTJ,,,,,,,0,,,autopick,1,2a15ba1f-99d6-4ceb-9c6f-5c40803e65d7,2020-07-16T15:51:24.955000Z,,-77.293876,-100.482228,,,,3.07,,,,,,,,,,,,,2a15ba1f-99d6-4ceb-9c6f-5c40803e65d7_TJTJ,1.589003,,2020-07-16T15:51:26.544003Z
,TJTJ,,,,,,,0,,,autopick,1,7f53c00d-14bc-4bf5-bd71-11979cbb27cd,2020-07-16T18:00:20.690000Z,,-77.2941,-100.482231,,,,3.15,,,,,,,,,,,,,7f53c00d-14bc-4bf5-bd71-11979cbb27cd_TJTJ,1.586787,,2020-07-16T18:00:22.276787Z
,TJTJ,,,,,,,0,,,autopick,1,8deaf378-7307-4223-9e51-354f8023e2d8,2020-07-16T19:10:30.510000Z,,-77.293877,-100.48121,,,,3.14,,,,,,,,,,,,,8deaf378-7307-4223-9e51-354f8023e2d8_TJTJ,1.589454,,2020-07-16T19:10:32.099454Z
,TJTJ,,,,,,,0,,,autopick,1,8b117554-3280-4f05-8cfe-9d8a6a8a01ef,2020-07-16T19:58:01.365000Z,,-77.294101,-100.481213,,,,3.14,,,,,,,,,,,,,8b117554-3280-4f05-8cfe-9d8a6a8a01ef_TJTJ,1.582618,,2020-07-16T19:58:02.947618Z
,TJTJ,,,,,,,0,,,autopick,1,59fb9d6b-4d4f-4bd7-9478-3ee20eb3751f,2020-07-16T20:28:55.890000Z,,-77.294101,-100.481213,,,,3.13,,,,,,,,,,,,,59fb9d6b-4d4f-4bd7-9478-3ee20eb3751f_TJTJ,1.591666,,2020-07-16T20:28:57.481666Z
,TJTJ,,,,,,,0,,,autopick,1,ac8dc0fe-5e98-4180-9908-7dbb65b99446,2020-07-16T22:08:59.985000Z,,-77.294101,-100.481213,,,,3.14,,,,,,,,,,,,,ac8dc0fe-5e98-4180-9908-7dbb65b99446_TJTJ,1.591089,,2020-07-16T22:09:01.576089Z
,TJTJ,,,,,,,0,,,autopick,1,926d911a-277d-47c3-b3ff-9f98c9e49866,2020-07-16T23:14:21.840000Z,,-77.293877,-100.48121,,,,3.14,,,,,,,,,,,,,926d911a-277d-47c3-b3ff-9f98c9e49866_TJTJ,1.590162,,2020-07-16T23:14:23.430162Z
,LILA,,,,,,modelled,1,1.652437,,,0,ffec101b-330b-4c29-82dc-379a4d667dee,2020-07-17T00:14:44.890000Z,,-77.294101,-100.481213,,,,3.14,,,,,,,,,,,,,ffec101b-330b-4c29-82dc-379a4d667dee_LILA,,2020-07-17T00:14:46.542437Z,
,TJTJ,,,,,,,0,,,autopick,1,ffec101b-330b-4c29-82dc-379a4d667dee,2020-07-17T00:14:44.890000Z,,-77.294101,-100.481213,,,,3.14,,,,,,,,,,,,,ffec101b-330b-4c29-82dc-379a4d667dee_TJTJ,1.589981,,2020-07-17T00:14:46.479981Z
,OTIS,,,,,,autopick,1,1.482246,,,0,ffec101b-330b-4c29-82dc-379a4d667dee,2020-07-17T00:14:44.890000Z,,-77.294101,-100.481213,,,,3.14,,,,,,,,,,,,,ffec101b-330b-4c29-82dc-379a4d667dee_OTIS,,2020-07-17T00:14:46.372246Z,
,TJTJ,,,,,,,0,,,autopick,1,0476fe4e-1ece-4e23-8594-7f45ecb1721e,2020-07-17T01:27:26.535000Z,,-77.294101,-100.481213,,,,3.15,,,,,,,,,,,,,0476fe4e-1ece-4e23-8594-7f45ecb1721e_TJTJ,1.596155,,2020-07-17T01:27:28.131155Z
,OTIS,,,,,,autopick,1,1.489507,,,0,0476fe4e-1ece-4e23-8594-7f45ecb1721e,2020-07-17T01:27:26.535000Z,,-77.294101,-100.481213,,,,3.15,,,,,,,,,,,,,0476fe4e-1ece-4e23-8594-7f45ecb1721e_OTIS,,2020-07-17T01:27:28.024507Z,
,TJTJ,,,,,,,0,,,autopick,1,950e5098-b5df-4163-b714-c714941f3ced,2020-07-17T02:26:09.570000Z,,-77.294101,-100.481213,,,,3.13,,,,,,,,,,,,,950e5098-b5df-4163-b714-c714941f3ced_TJTJ,1.581674,,2020-07-17T02:26:11.151674Z
,DEEJ,,,,,,autopick,1,1.51319,,,0,313770e9-b8c1-458f-a599-4bab3f580f80,2020-07-17T03:23:43.085000Z,,-77.2941,-100.482231,,,,3.14,,,,,,,,,,,,,313770e9-b8c1-458f-a599-4bab3f580f80_DEEJ,,2020-07-17T03:23:44.598190Z,
,TJTJ,,,,,,,0,,,autopick,1,313770e9-b8c1-458f-a599-4bab3f580f80,2020-07-17T03:23:43.085000Z,,-77.2941,-100.482231,,,,3.14,,,,,,,,,,,,,313770e9-b8c1-458f-a599-4bab3f580f80_TJTJ,1.592193,,2020-07-17T03:23:44.677193Z
,TJTJ,,,,,,,0,,,autopick,1,b043097f-448d-4045-8e70-f93d2ff3882d,2020-07-17T04:23:42.850000Z,,-77.293876,-100.482228,,,,3.14,,,,,,,,,,,,,b043097f-448d-4045-8e70-f93d2ff3882d_TJTJ,1.585393,,2020-07-17T04:23:44.435393Z
,TJTJ,,,,,,,0,,,autopick,1,35de8296-cd81-4da3-a745-dfb373eb9338,2020-07-17T18:18:20.740000Z,,-77.293876,-100.482228,,,,3.14,,,,,,,,,,,,,35de8296-cd81-4da3-a745-dfb373eb9338_TJTJ,1.605568,,2020-07-17T18:18:22.345568Z
,TJTJ,,,,,,,0,,,autopick,1,b5d0d2f4-5082-43fe-842f-0c713c021566,2020-07-18T01:02:10.860000Z,,-77.294101,-100.481213,,,,3.15,,,,,,,,,,,,,b5d0d2f4-5082-43fe-842f-0c713c021566_TJTJ,1.585192,,2020-07-18T01:02:12.445192Z
,TJTJ,,,,,,,0,,,autopick,1,94fc8a28-c52b-46c2-8a31-863d317d4387,2020-07-18T01:30:53.100000Z,,-77.294101,-100.481213,,,,3.13,,,,,,,,,,,,,94fc8a28-c52b-46c2-8a31-863d317d4387_TJTJ,1.597278,,2020-07-18T01:30:54.697278Z
,OTIS,,,,,,autopick,1,1.490064,,,0,94fc8a28-c52b-46c2-8a31-863d317d4387,2020-07-18T01:30:53.100000Z,,-77.294101,-100.481213,,,,3.13,,,,,,,,,,,,,94fc8a28-c52b-46c2-8a31-863d317d4387_OTIS,,2020-07-18T01:30:54.590064Z,
,TJTJ,,,,,,,0,,,autopick,1,4093113c-8695-4516-b65f-4acd3757a2c4,2020-07-19T20:32:02.790000Z,,-77.293877,-100.48121,,,,3.14,,,,,,,,,,,,,4093113c-8695-4516-b65f-4acd3757a2c4_TJTJ,1.585014,,2020-07-19T20:32:04.375014Z
,OTIS,,,,,,autopick,1,1.479882,,,0,4093113c-8695-4516-b65f-4acd3757a2c4,2020-07-19T20:32:02.790000Z,,-77.293877,-100.48121,,,,3.14,,,,,,,,,,,,,4093113c-8695-4516-b65f-4acd3757a2c4_OTIS,,2020-07-19T20:32:04.269882Z,
,TJTJ,,,,,,,0,,,autopick,1,02d6de08-5e50-4e41-9847-ed9524fa2db2,2020-07-19T21:38:39.955000Z,,-77.293877,-100.48121,,,,3.14,,,,,,,,,,,,,02d6de08-5e50-4e41-9847-ed9524fa2db2_TJTJ,1.581655,,2020-07-19T21:38:41.536655Z
,OTIS,,,,,,autopick,1,1.476054,,,0,02d6de08-5e50-4e41-9847-ed9524fa2db2,2020-07-19T21:38:39.955000Z,,-77.293877,-100.48121,,,,3.14,,,,,,,,,,,,,02d6de08-5e50-4e41-9847-ed9524fa2db2_OTIS,,2020-07-19T21:38:41.431054Z,
,TJTJ,,,,,,,0,,,autopick,1,97db3229-e5fa-443f-9271-1f4418e3a424,2020-07-19T22:08:02.075000Z,,-77.297887,-100.509774,,,,3.26,,,,,,,,,,,,,97db3229-e5fa-443f-9271-1f4418e3a424_TJTJ,1.709541,,2020-07-19T22:08:03.784541Z
,OTIS,,,,,,autopick,1,1.420173,,,0,97db3229-e5fa-443f-9271-1f4418e3a424,2020-07-19T22:08:02.075000Z,,-77.297887,-100.509774,,,,3.26,,,,,,,,,,,,,97db3229-e5fa-443f-9271-1f4418e3a424_OTIS,,2020-07-19T22:08:03.495173Z,
,TJTJ,,,,,,,0,,,autopick,1,7d297ca6-fa8d-40b4-adcb-6d86c6a9d35e,2020-07-19T22:14:52.520000Z,,-77.294101,-100.481213,,,,3.14,,,,,,,,,,,,,7d297ca6-fa8d-40b4-adcb-6d86c6a9d35e_TJTJ,1.595133,,2020-07-19T22:14:54.115133Z
,OTIS,,,,,,autopick,1,1.487762,,,0,7d297ca6-fa8d-40b4-adcb-6d86c6a9d35e,2020-07-19T22:14:52.520000Z,,-77.294101,-100.481213,,,,3.14,,,,,,,,,,,,,7d297ca6-fa8d-40b4-adcb-6d86c6a9d35e_OTIS,,2020-07-19T22:14:54.007762Z,
,TJTJ,,,,,,autopick,1,0.889813,,autopick,1,c1203cae-410a-4a92-b471-5654002683a1,2020-07-19T22:37:29.310000Z,,-77.297664,-100.508752,,,,3.27,,,,,,,,,,,,,c1203cae-410a-4a92-b471-5654002683a1_TJTJ,1.71357,2020-07-19T22:37:30.199813Z,2020-07-19T22:37:31.023570Z
,OTIS,,,,,,autopick,1,1.420732,,,0,c1203cae-410a-4a92-b471-5654002683a1,2020-07-19T22:37:29.310000Z,,-77.297664,-100.508752,,,,3.27,,,,,,,,,,,,,c1203cae-410a-4a92-b471-5654002683a1_OTIS,,2020-07-19T22:37:30.730732Z,
,TJTJ,,,,,,,0,,,autopick,1,1053c303-5751-40a9-ae69-fdf320e75d51,2020-07-20T08:32:01.925000Z,,-77.2941,-100.482231,,,,3.15,,,,,,,,,,,,,1053c303-5751-40a9-ae69-fdf320e75d51_TJTJ,1.593733,,2020-07-20T08:32:03.518733Z
,TJTJ,,,,,,,0,,,autopick,1,55705ec6-c152-46ee-904e-15d11b8f5878,2020-07-20T13:46:25.965000Z,,-77.293877,-100.48121,,,,3.16,,,,,,,,,,,,,55705ec6-c152-46ee-904e-15d11b8f5878_TJTJ,1.590325,,2020-07-20T13:46:27.555325Z
,TJTJ,,,,,,,0,,,autopick,1,112af55a-df48-46f0-9d48-5114b96c60f4,2020-07-20T14:19:53.975000Z,,-77.2941,-100.482231,,,,3.15,,,,,,,,,,,,,112af55a-df48-46f0-9d48-5114b96c60f4_TJTJ,1.588901,,2020-07-20T14:19:55.563901Z
,TJTJ,,,,,,,0,,,autopick,1,27eb226b-2583-4ef6-9415-20a4b5614d34,2020-07-20T15:04:17.265000Z,,-77.293877,-100.48121,,,,3.15,,,,,,,,,,,,,27eb226b-2583-4ef6-9415-20a4b5614d34_TJTJ,1.599269,,2020-07-20T15:04:18.864269Z
,TJTJ,,,,,,,0,,,autopick,1,f1893721-19b9-440e-b3b0-34067f6b7ebc,2020-07-20T15:56:07.335000Z,,-77.293877,-100.48121,,,,3.14,,,,,,,,,,,,,f1893721-19b9-440e-b3b0-34067f6b7ebc_TJTJ,1.586955,,2020-07-20T15:56:08.921955Z
,OTIS,,,,,,autopick,1,1.482092,,,0,f1893721-19b9-440e-b3b0-34067f6b7ebc,2020-07-20T15:56:07.335000Z,,-77.293877,-100.48121,,,,3.14,,,,,,,,,,,,,f1893721-19b9-440e-b3b0-34067f6b7ebc_OTIS,,2020-07-20T15:56:08.817092Z,
,TJTJ,,,,,,,0,,,autopick,1,2b12e51c-f187-409b-8a7d-ae82eed677ef,2020-07-20T18:47:54.505000Z,,-77.293877,-100.48121,,,,3.15,,,,,,,,,,,,,2b12e51c-f187-409b-8a7d-ae82eed677ef_TJTJ,1.596502,,2020-07-20T18:47:56.101502Z
,TJTJ,,,,,,,0,,,autopick,1,637caafc-f43b-40fa-b922-50735abb2205,2020-07-20T19:36:53.665000Z,,-77.293876,-100.482228,,,,3.15,,,,,,,,,,,,,637caafc-f43b-40fa-b922-50735abb2205_TJTJ,1.586829,,2020-07-20T19:36:55.251829Z
,OTIS,,,,,,autopick,1,1.473689,,,0,637caafc-f43b-40fa-b922-50735abb2205,2020-07-20T19:36:53.665000Z,,-77.293876,-100.482228,,,,3.15,,,,,,,,,,,,,637caafc-f43b-40fa-b922-50735abb2205_OTIS,,2020-07-20T19:36:55.138689Z,
,TJTJ,,,,,,,0,,,autopick,1,813cfdfc-7af9-4a04-967a-394fc533654a,2020-07-20T20:29:51.960000Z,,-77.294101,-100.481213,,,,3.15,,,,,,,,,,,,,813cfdfc-7af9-4a04-967a-394fc533654a_TJTJ,1.583327,,2020-07-20T20:29:53.543327Z
,OTIS,,,,,,autopick,1,1.474609,,,0,813cfdfc-7af9-4a04-967a-394fc533654a,2020-07-20T20:29:51.960000Z,,-77.294101,-100.481213,,,,3.15,,,,,,,,,,,,,813cfdfc-7af9-4a04-967a-394fc533654a_OTIS,,2020-07-20T20:29:53.434609Z,
,TJTJ,,,,,,,0,,,autopick,1,ebf85a85-424d-4789-92af-116f1c374e88,2020-07-20T21:32:03.250000Z,,-77.294101,-100.481213,,,,3.15,,,,,,,,,,,,,ebf85a85-424d-4789-92af-116f1c374e88_TJTJ,1.582658,,2020-07-20T21:32:04.832658Z
,OTIS,,,,,,autopick,1,1.474382,,,0,ebf85a85-424d-4789-92af-116f1c374e88,2020-07-20T21:32:03.250000Z,,-77.294101,-100.481213,,,,3.15,,,,,,,,,,,,,ebf85a85-424d-4789-92af-116f1c374e88_OTIS,,2020-07-20T21:32:04.724382Z,
,TJTJ,,,,,,,0,,,autopick,1,e7368b10-f5a6-4716-8fb7-50c7628a9a26,2020-07-20T22:32:35.650000Z,,-77.293877,-100.48121,,,,3.15,,,,,,,,,,,,,e7368b10-f5a6-4716-8fb7-50c7628a9a26_TJTJ,1.600031,,2020-07-20T22:32:37.250031Z
,OTIS,,,,,,autopick,1,1.489252,,,0,e7368b10-f5a6-4716-8fb7-50c7628a9a26,2020-07-20T22:32:35.650000Z,,-77.293877,-100.48121,,,,3.15,,,,,,,,,,,,,e7368b10-f5a6-4716-8fb7-50c7628a9a26_OTIS,,2020-07-20T22:32:37.139252Z,
,TJTJ,,,,,,,0,,,autopick,1,fe0b53c9-f048-434e-bbfe-6e6062c56b65,2020-07-20T23:32:28.905000Z,,-77.293876,-100.482228,,,,3.15,,,,,,,,,,,,,fe0b53c9-f048-434e-bbfe-6e6062c56b65_TJTJ,1.598926,,2020-07-20T23:32:30.503926Z
,OTIS,,,,,,autopick,1,1.488836,,,0,fe0b53c9-f048-434e-bbfe-6e6062c56b65,2020-07-20T23:32:28.905000Z,,-77.293876,-100.482228,,,,3.15,,,,,,,,,,,,,fe0b53c9-f048-434e-bbfe-6e6062c56b65_OTIS,,2020-07-20T23:32:30.393836Z,
,TJTJ,,,,,,,0,,,autopick,1,5092b62a-a7f6-4466-bb3f-97459b2e1c48,2020-07-21T00:33:58.155000Z,,-77.293877,-100.48121,,,,3.15,,,,,,,,,,,,,5092b62a-a7f6-4466-bb3f-97459b2e1c48_TJTJ,1.585717,,2020-07-21T00:33:59.740717Z
